{
  "type": "FeatureCollection",
  "features": [
    {
      "type": "Feature",
      "properties": {
        "norad_id": 54259,
        "name": "EUTELSAT 10B",
        "group": "eutelsat",
        "lat": -0.014440934777791117,
        "lon": -90.99509498937286,
        "alt_km": 35788.11218007993,
        "timestamp": "2025-12-15T11:38:36.829182+00:00",
        "meta_object_name": "EUTELSAT 10B",
        "meta_object_id": "2022-157A",
        "meta_epoch": "2025-12-14T22:09:38.644416",
        "meta_mean_motion": 1.00271232,
        "meta_eccentricity": 6.538e-05,
        "meta_inclination": 0.0621,
        "meta_ra_of_asc_node": 99.2676,
        "meta_arg_of_pericenter": 35.6411,
        "meta_mean_anomaly": 291.3064,
        "meta_ephemeris_type": 0,
        "meta_classification_type": "U",
        "meta_norad_cat_id": 54259,
        "meta_element_set_no": 999,
        "meta_rev_at_epoch": 1117,
        "meta_bstar": 0,
        "meta_mean_motion_dot": 8.8e-07,
        "meta_mean_motion_ddot": 0,
        "tle_line1": "1 54259U 22157A   25348.92336394  .00000088  00000+0  00000+0 0  9997",
        "tle_line2": "2 54259   0.0621  99.2676 0000653  35.6411 291.3064  1.00271232 11172"
      },
      "geometry": {
        "type": "Point",
        "coordinates": [
          -90.99509498937286,
          -0.014440934777791117
        ]
      }
    },
    {
      "type": "Feature",
      "properties": {
        "norad_id": 59346,
        "name": "EUTELSAT 36D",
        "group": "eutelsat",
        "lat": -0.03472700992560285,
        "lon": -65.14525010983657,
        "alt_km": 35785.25775209861,
        "timestamp": "2025-12-15T11:38:36.829194+00:00",
        "meta_object_name": "EUTELSAT 36D",
        "meta_object_id": "2024-059A",
        "meta_epoch": "2025-12-14T22:08:56.031936",
        "meta_mean_motion": 1.00270798,
        "meta_eccentricity": 6.181e-05,
        "meta_inclination": 0.0221,
        "meta_ra_of_asc_node": 354.3445,
        "meta_arg_of_pericenter": 6.9474,
        "meta_mean_anomaly": 90.6078,
        "meta_ephemeris_type": 0,
        "meta_classification_type": "U",
        "meta_norad_cat_id": 59346,
        "meta_element_set_no": 999,
        "meta_rev_at_epoch": 630,
        "meta_bstar": 0,
        "meta_mean_motion_dot": 0,
        "meta_mean_motion_ddot": 0,
        "tle_line1": "1 59346U 24059A   25348.92287074  .00000000  00000+0  00000+0 0  9996",
        "tle_line2": "2 59346   0.0221 354.3445 0000618   6.9474  90.6078  1.00270798  6300"
      },
      "geometry": {
        "type": "Point",
        "coordinates": [
          -65.14525010983657,
          -0.03472700992560285
        ]
      }
    }
  ]
}